INSAT-3D                
1 39216U 13038B   26197.43814667 -.00000351  00000+0  00000+0 0  9998
2 39216   1.9997  82.1690 0000536  76.4436  62.8721  1.00268001 47373
INSAT-3DR               
1 41752U 16054A   26197.85490501 -.00000087  00000+0  00000+0 0  9996
2 41752   0.0741  88.8413 0010513 180.9766  46.6194  1.00270885 36114
ICEYE-X71               
1 68494U 26067CG  26195.36222958  .00001475  00000+0  15178-3 0  9993
2 68494  97.7625 153.1825 0001068 349.9955  10.1242 14.91790708 15779
ICEYE-X73               
1 68496U 26067CJ  26197.66992951  .00000968  00000+0  10009-3 0  9991
2 68496  97.7623 155.5424 0001672 146.4960 213.6365 14.92351986 16125
ICEYE-X75               
1 68497U 26067CK  26197.87576056  .00000379  00000+0  42730-4 0  9992
2 68497  97.7607 155.7116 0001607 142.3326 217.8006 14.92175312 16155
ICEYE-X74               
1 68500U 26067CN  26197.44068329  .00001305  00000+0  13497-3 0  9996
2 68500  97.7633 155.2398 0000716 336.4098  23.7087 14.91796391 16088
ICEYE-X76               
1 68502U 26067CQ  26197.83907051  .00000602  00000+0  65248-4 0  9996
2 68502  97.7640 155.6505 0000458 297.0482  63.0690 14.91752847 16146
ICEYE-X72               
1 68504U 26067CS  26197.83335647  .00053967  00000+0  47282-2 0  9992
2 68504  97.7660 155.7855 0000624 150.1503 165.3028 14.96444368  5754
ICEYE-X78               
1 68995U 26100R   26197.65554425  .00000559  00000+0  60890-4 0  9992
2 68995  97.7331  94.5605 0003491  52.0617 308.0917 14.91813506 11093
ICEYE-X82               
1 68996U 26100S   26197.67787166  .00001259  00000+0  13150-3 0  9999
2 68996  97.7325  94.5258 0005678  60.6047 299.5738 14.91428757 11097
